ORBCOMM-X               
1 21576U 91050C   25192.43390161  .00000190  00000+0  69058-4 0  9993
2 21576  98.3427 258.5384 0004867 108.8386 251.3332 14.43276751785616
ORBCOMM FM01            
1 23545U 95017A   25192.49908656  .00002988  00000+0  31604-3 0  9990
2 23545  69.9634  13.5004 0005465 269.0540  90.9988 14.90266489616136
ORBCOMM FM02            
1 23546U 95017B   25192.56157732  .00003667  00000+0  37717-3 0  9996
2 23546  69.9645  32.6566 0006865 269.6767  90.3601 14.91172529615795
ORBCOMM FM08            
1 25112U 97084A   25192.50256149  .00000601  00000+0  20814-3 0  9994
2 25112  45.0134 251.1367 0005492 347.5813  12.4902 14.45862404444891
ORBCOMM FM10            
1 25113U 97084B   25192.55634304  .00000507  00000+0  18261-3 0  9991
2 25113  45.0146 253.3013 0005470 309.4423  50.5944 14.45649406445050
ORBCOMM FM11            
1 25114U 97084C   25192.56511289  .00000572  00000+0  20190-3 0  9995
2 25114  45.0133 253.9364 0006111 314.2895  45.7454 14.45399741445003
ORBCOMM FM12            
1 25115U 97084D   25192.59636013  .00000540  00000+0  19271-3 0  9995
2 25115  45.0140 253.5342 0005359 307.7174  52.3192 14.45419956444805
ORBCOMM FM09            
1 25116U 97084E   25192.49253499  .00000543  00000+0  19407-3 0  9992
2 25116  45.0144 254.9892 0006886 304.0724  55.9473 14.45294934444990
